[{"OBJECT_NAME":"STARLINK-3153","OBJECT_ID":"2021-104Z","EPOCH":"2026-02-26T23:32:43.677312","MEAN_MOTION":15.08837842,"ECCENTRICITY":0.00013704,"INCLINATION":53.2168,"RA_OF_ASC_NODE":277.3771,"ARG_OF_PERICENTER":88.4087,"MEAN_ANOMALY":271.7062,"EPHEMERIS_TYPE":0,"CLASSIFICATION_TYPE":"U","NORAD_CAT_ID":49431,"ELEMENT_SET_NO":999,"REV_AT_EPOCH":23701,"BSTAR":4.144201e-5,"MEAN_MOTION_DOT":3.72e-6,"MEAN_MOTION_DDOT":0},{"OBJECT_NAME":"STARLINK-3158","OBJECT_ID":"2021-104AA","EPOCH":"2026-02-26T21:38:48.785856","MEAN_MOTION":15.08840934,"ECCENTRICITY":0.0001434,"INCLINATION":53.2159,"RA_OF_ASC_NODE":267.5496,"ARG_OF_PERICENTER":87.8692,"MEAN_ANOMALY":272.2464,"EPHEMERIS_TYPE":0,"CLASSIFICATION_TYPE":"U","NORAD_CAT_ID":49432,"ELEMENT_SET_NO":999,"REV_AT_EPOCH":23714,"BSTAR":9.545e-5,"MEAN_MOTION_DOT":1.232e-5,"MEAN_MOTION_DDOT":0},{"OBJECT_NAME":"STARLINK-3079","OBJECT_ID":"2021-104AB","EPOCH":"2026-02-26T13:41:51.444384","MEAN_MOTION":15.08825713,"ECCENTRICITY":0.0001734,"INCLINATION":53.2157,"RA_OF_ASC_NODE":259.0376,"ARG_OF_PERICENTER":94.8353,"MEAN_ANOMALY":265.2838,"EPHEMERIS_TYPE":0,"CLASSIFICATION_TYPE":"U","NORAD_CAT_ID":49433,"ELEMENT_SET_NO":999,"REV_AT_EPOCH":23832,"BSTAR":-5.3668e-5,"MEAN_MOTION_DOT":-1.142e-5,"MEAN_MOTION_DDOT":0},{"OBJECT_NAME":"STARLINK-3134","OBJECT_ID":"2021-104AC","EPOCH":"2026-02-27T00:20:23.645184","MEAN_MOTION":15.08849121,"ECCENTRICITY":0.00017071,"INCLINATION":53.2155,"RA_OF_ASC_NODE":277.2068,"ARG_OF_PERICENTER":89.1007,"MEAN_ANOMALY":271.018,"EPHEMERIS_TYPE":0,"CLASSIFICATION_TYPE":"U","NORAD_CAT_ID":49434,"ELEMENT_SET_NO":999,"REV_AT_EPOCH":23810,"BSTAR":9.0229119e-5,"MEAN_MOTION_DOT":1.149e-5,"MEAN_MOTION_DDOT":0},{"OBJECT_NAME":"STARLINK-3117","OBJECT_ID":"2021-104AD","EPOCH":"2026-02-27T05:42:21.636288","MEAN_MOTION":15.08847021,"ECCENTRICITY":0.00021464,"INCLINATION":53.2141,"RA_OF_ASC_NODE":256.0435,"ARG_OF_PERICENTER":76.3852,"MEAN_ANOMALY":283.7379,"EPHEMERIS_TYPE":0,"CLASSIFICATION_TYPE":"U","NORAD_CAT_ID":49435,"ELEMENT_SET_NO":999,"REV_AT_EPOCH":23733,"BSTAR":-0.00017357382,"MEAN_MOTION_DOT":-3.05e-5,"MEAN_MOTION_DDOT":0},{"OBJECT_NAME":"STARLINK-3049","OBJECT_ID":"2021-104AE","EPOCH":"2026-02-27T05:40:59.887200","MEAN_MOTION":15.08843964,"ECCENTRICITY":0.00013816,"INCLINATION":53.2157,"RA_OF_ASC_NODE":256.047,"ARG_OF_PERICENTER":88.2128,"MEAN_ANOMALY":271.9023,"EPHEMERIS_TYPE":0,"CLASSIFICATION_TYPE":"U","NORAD_CAT_ID":49436,"ELEMENT_SET_NO":999,"REV_AT_EPOCH":23733,"BSTAR":0.00010052477,"MEAN_MOTION_DOT":1.312e-5,"MEAN_MOTION_DDOT":0},{"OBJECT_NAME":"STARLINK-3130","OBJECT_ID":"2021-104AF","EPOCH":"2026-02-26T21:33:27.613728","MEAN_MOTION":15.08837254,"ECCENTRICITY":0.0001685,"INCLINATION":53.2153,"RA_OF_ASC_NODE":257.5666,"ARG_OF_PERICENTER":94.0989,"MEAN_ANOMALY":266.0196,"EPHEMERIS_TYPE":0,"CLASSIFICATION_TYPE":"U","NORAD_CAT_ID":49437,"ELEMENT_SET_NO":999,"REV_AT_EPOCH":23728,"BSTAR":2.7245e-5,"MEAN_MOTION_DOT":1.46e-6,"MEAN_MOTION_DDOT":0},{"OBJECT_NAME":"STARLINK-3044","OBJECT_ID":"2021-104AG","EPOCH":"2026-02-26T13:21:59.833728","MEAN_MOTION":15.08840646,"ECCENTRICITY":0.0001433,"INCLINATION":53.2151,"RA_OF_ASC_NODE":259.0303,"ARG_OF_PERICENTER":95.4937,"MEAN_ANOMALY":264.6219,"EPHEMERIS_TYPE":0,"CLASSIFICATION_TYPE":"U","NORAD_CAT_ID":49438,"ELEMENT_SET_NO":999,"REV_AT_EPOCH":23723,"BSTAR":1.0818e-5,"MEAN_MOTION_DOT":-1.16e-6,"MEAN_MOTION_DDOT":0},{"OBJECT_NAME":"STARLINK-3105","OBJECT_ID":"2021-104AJ","EPOCH":"2026-02-26T13:25:56.026272","MEAN_MOTION":15.08839331,"ECCENTRICITY":0.0001828,"INCLINATION":53.2189,"RA_OF_ASC_NODE":259.0876,"ARG_OF_PERICENTER":83.6035,"MEAN_ANOMALY":276.5165,"EPHEMERIS_TYPE":0,"CLASSIFICATION_TYPE":"U","NORAD_CAT_ID":49440,"ELEMENT_SET_NO":999,"REV_AT_EPOCH":23723,"BSTAR":6.6733e-7,"MEAN_MOTION_DOT":-2.78e-6,"MEAN_MOTION_DDOT":0},{"OBJECT_NAME":"STARLINK-3128","OBJECT_ID":"2021-104AK","EPOCH":"2026-02-26T22:31:45.572160","MEAN_MOTION":15.0883955,"ECCENTRICITY":0.0002511,"INCLINATION":53.211,"RA_OF_ASC_NODE":257.3873,"ARG_OF_PERICENTER":75.9046,"MEAN_ANOMALY":284.2225,"EPHEMERIS_TYPE":0,"CLASSIFICATION_TYPE":"U","NORAD_CAT_ID":49441,"ELEMENT_SET_NO":999,"REV_AT_EPOCH":23729,"BSTAR":2.709e-5,"MEAN_MOTION_DOT":1.43e-6,"MEAN_MOTION_DDOT":0},{"OBJECT_NAME":"STARLINK-3098","OBJECT_ID":"2021-104AL","EPOCH":"2026-02-27T06:49:52.393152","MEAN_MOTION":15.08841876,"ECCENTRICITY":0.00015135,"INCLINATION":53.2153,"RA_OF_ASC_NODE":255.8318,"ARG_OF_PERICENTER":92.5832,"MEAN_ANOMALY":267.5333,"EPHEMERIS_TYPE":0,"CLASSIFICATION_TYPE":"U","NORAD_CAT_ID":49442,"ELEMENT_SET_NO":999,"REV_AT_EPOCH":23734,"BSTAR":2.4752767e-5,"MEAN_MOTION_DOT":1.06e-6,"MEAN_MOTION_DDOT":0},{"OBJECT_NAME":"STARLINK-3136","OBJECT_ID":"2021-104AM","EPOCH":"2026-02-27T06:23:23.385696","MEAN_MOTION":15.08835086,"ECCENTRICITY":0.00016523,"INCLINATION":53.2147,"RA_OF_ASC_NODE":255.9176,"ARG_OF_PERICENTER":73.4979,"MEAN_ANOMALY":286.6195,"EPHEMERIS_TYPE":0,"CLASSIFICATION_TYPE":"U","NORAD_CAT_ID":49443,"ELEMENT_SET_NO":999,"REV_AT_EPOCH":23734,"BSTAR":3.7245039e-5,"MEAN_MOTION_DOT":3.05e-6,"MEAN_MOTION_DDOT":0},{"OBJECT_NAME":"STARLINK-3126","OBJECT_ID":"2021-104AN","EPOCH":"2026-02-26T13:16:42.666240","MEAN_MOTION":15.08842318,"ECCENTRICITY":0.0001403,"INCLINATION":53.2159,"RA_OF_ASC_NODE":259.1245,"ARG_OF_PERICENTER":94.4611,"MEAN_ANOMALY":265.6541,"EPHEMERIS_TYPE":0,"CLASSIFICATION_TYPE":"U","NORAD_CAT_ID":49444,"ELEMENT_SET_NO":999,"REV_AT_EPOCH":23723,"BSTAR":7.5661e-5,"MEAN_MOTION_DOT":9.16e-6,"MEAN_MOTION_DDOT":0},{"OBJECT_NAME":"STARLINK-3122","OBJECT_ID":"2021-104AP","EPOCH":"2026-02-27T06:23:30.819552","MEAN_MOTION":15.08827973,"ECCENTRICITY":0.0001659,"INCLINATION":53.2177,"RA_OF_ASC_NODE":266.3088,"ARG_OF_PERICENTER":82.0281,"MEAN_ANOMALY":278.0899,"EPHEMERIS_TYPE":0,"CLASSIFICATION_TYPE":"U","NORAD_CAT_ID":49445,"ELEMENT_SET_NO":999,"REV_AT_EPOCH":23719,"BSTAR":-5.6400931e-5,"MEAN_MOTION_DOT":-1.185e-5,"MEAN_MOTION_DDOT":0},{"OBJECT_NAME":"STARLINK-3099","OBJECT_ID":"2021-104AQ","EPOCH":"2026-02-26T21:06:58.105152","MEAN_MOTION":15.08838279,"ECCENTRICITY":0.0002387,"INCLINATION":53.2156,"RA_OF_ASC_NODE":257.6474,"ARG_OF_PERICENTER":101.1768,"MEAN_ANOMALY":258.9492,"EPHEMERIS_TYPE":0,"CLASSIFICATION_TYPE":"U","NORAD_CAT_ID":49446,"ELEMENT_SET_NO":999,"REV_AT_EPOCH":23728,"BSTAR":1.9926e-5,"MEAN_MOTION_DOT":2.9e-7,"MEAN_MOTION_DDOT":0},{"OBJECT_NAME":"STARLINK-3115","OBJECT_ID":"2021-104AR","EPOCH":"2026-02-26T13:24:36.781920","MEAN_MOTION":15.08835931,"ECCENTRICITY":0.0001443,"INCLINATION":53.2164,"RA_OF_ASC_NODE":269.0925,"ARG_OF_PERICENTER":87.1377,"MEAN_ANOMALY":272.978,"EPHEMERIS_TYPE":0,"CLASSIFICATION_TYPE":"U","NORAD_CAT_ID":49447,"ELEMENT_SET_NO":999,"REV_AT_EPOCH":23709,"BSTAR":4.9194e-5,"MEAN_MOTION_DOT":4.95e-6,"MEAN_MOTION_DDOT":0},{"OBJECT_NAME":"STARLINK-3137","OBJECT_ID":"2021-104AT","EPOCH":"2026-02-26T21:20:40.352352","MEAN_MOTION":15.40744249,"ECCENTRICITY":0.0001342,"INCLINATION":53.2169,"RA_OF_ASC_NODE":256.442,"ARG_OF_PERICENTER":98.6538,"MEAN_ANOMALY":261.462,"EPHEMERIS_TYPE":0,"CLASSIFICATION_TYPE":"U","NORAD_CAT_ID":49449,"ELEMENT_SET_NO":999,"REV_AT_EPOCH":23730,"BSTAR":0.00044228,"MEAN_MOTION_DOT":0.00017998,"MEAN_MOTION_DDOT":0},{"OBJECT_NAME":"STARLINK-3127","OBJECT_ID":"2021-104AU","EPOCH":"2026-02-27T00:42:54.421920","MEAN_MOTION":15.08846325,"ECCENTRICITY":0.00014906,"INCLINATION":53.2176,"RA_OF_ASC_NODE":267.0173,"ARG_OF_PERICENTER":73.1986,"MEAN_ANOMALY":286.917,"EPHEMERIS_TYPE":0,"CLASSIFICATION_TYPE":"U","NORAD_CAT_ID":49450,"ELEMENT_SET_NO":999,"REV_AT_EPOCH":23742,"BSTAR":9.3198472e-5,"MEAN_MOTION_DOT":1.196e-5,"MEAN_MOTION_DDOT":0},{"OBJECT_NAME":"STARLINK-3125","OBJECT_ID":"2021-104AV","EPOCH":"2026-02-27T00:21:41.279904","MEAN_MOTION":15.08851844,"ECCENTRICITY":0.0001368,"INCLINATION":53.2179,"RA_OF_ASC_NODE":267.0403,"ARG_OF_PERICENTER":93.6558,"MEAN_ANOMALY":266.459,"EPHEMERIS_TYPE":0,"CLASSIFICATION_TYPE":"U","NORAD_CAT_ID":49451,"ELEMENT_SET_NO":999,"REV_AT_EPOCH":23716,"BSTAR":0.00011337083,"MEAN_MOTION_DOT":1.517e-5,"MEAN_MOTION_DDOT":0},{"OBJECT_NAME":"STARLINK-3150","OBJECT_ID":"2021-104AW","EPOCH":"2026-02-25T21:05:38.396832","MEAN_MOTION":15.08837832,"ECCENTRICITY":0.00018897,"INCLINATION":53.2165,"RA_OF_ASC_NODE":272.1828,"ARG_OF_PERICENTER":91.7303,"MEAN_ANOMALY":268.3905,"EPHEMERIS_TYPE":0,"CLASSIFICATION_TYPE":"U","NORAD_CAT_ID":49452,"ELEMENT_SET_NO":999,"REV_AT_EPOCH":23699,"BSTAR":6.874726e-6,"MEAN_MOTION_DOT":-1.79e-6,"MEAN_MOTION_DDOT":0},{"OBJECT_NAME":"STARLINK-3129","OBJECT_ID":"2021-104AX","EPOCH":"2026-02-27T00:23:06.633600","MEAN_MOTION":15.08833723,"ECCENTRICITY":0.00014454,"INCLINATION":53.2158,"RA_OF_ASC_NODE":267.126,"ARG_OF_PERICENTER":91.3585,"MEAN_ANOMALY":268.7573,"EPHEMERIS_TYPE":0,"CLASSIFICATION_TYPE":"U","NORAD_CAT_ID":49453,"ELEMENT_SET_NO":999,"REV_AT_EPOCH":23716,"BSTAR":1.5983798e-5,"MEAN_MOTION_DOT":-3.4e-7,"MEAN_MOTION_DDOT":0},{"OBJECT_NAME":"STARLINK-3160","OBJECT_ID":"2021-104AY","EPOCH":"2026-02-27T00:16:24.350880","MEAN_MOTION":15.08842831,"ECCENTRICITY":0.00014656,"INCLINATION":53.2169,"RA_OF_ASC_NODE":267.0621,"ARG_OF_PERICENTER":109.3349,"MEAN_ANOMALY":250.7802,"EPHEMERIS_TYPE":0,"CLASSIFICATION_TYPE":"U","NORAD_CAT_ID":49454,"ELEMENT_SET_NO":999,"REV_AT_EPOCH":23716,"BSTAR":1.1152919e-5,"MEAN_MOTION_DOT":-1.1e-6,"MEAN_MOTION_DDOT":0},{"OBJECT_NAME":"STARLINK-3145","OBJECT_ID":"2021-104AZ","EPOCH":"2026-02-27T06:16:45.282144","MEAN_MOTION":15.0883887,"ECCENTRICITY":0.0001693,"INCLINATION":53.2163,"RA_OF_ASC_NODE":265.9368,"ARG_OF_PERICENTER":89.8257,"MEAN_ANOMALY":270.2929,"EPHEMERIS_TYPE":0,"CLASSIFICATION_TYPE":"U","NORAD_CAT_ID":49455,"ELEMENT_SET_NO":999,"REV_AT_EPOCH":23720,"BSTAR":8.100857e-6,"MEAN_MOTION_DOT":-1.59e-6,"MEAN_MOTION_DDOT":0}]
